STARLINK-35575          
1 66165U 25240V   25316.83336806 -.01994584  00000+0 -24264-1 0  9991
2 66165  53.1593 247.5827 0001534 108.6065  88.9172 15.63271909  4097
STARLINK-35624          
1 66166U 25240W   25316.83336806 -.01964599  00000+0 -23869-1 0  9995
2 66166  53.1593 247.5698 0001404 105.7942  97.4828 15.63253397  4096
STARLINK-35641          
1 66167U 25240X   25316.83336806 -.01966638  00000+0 -23896-1 0  9992
2 66167  53.1595 247.5739 0001386 103.4543  97.9064 15.63254226  4095
STARLINK-35578          
1 66168U 25240Y   25316.83336806 -.01973214  00000+0 -23981-1 0  9996
2 66168  53.1593 247.5578 0001428 113.6984  95.3252 15.63259993  4091
STARLINK-35638          
1 66169U 25240Z   25316.83336806 -.01944419  00000+0 -23600-1 0  9990
2 66169  53.1591 247.5659 0001462 112.8283  92.3646 15.63242074  4097
STARLINK-35585          
1 66170U 25240AA  25316.83336806 -.01951709  00000+0 -23697-1 0  9998
2 66170  53.1594 247.5550 0001470 111.8296  99.1143 15.63246157  4097
STARLINK-35606          
1 66171U 25240AB  25316.83336806 -.01958056  00000+0 -23784-1 0  9998
2 66171  53.1596 247.5493 0001286 100.3737 112.4897 15.63248370  4098
STARLINK-35627          
1 66172U 25240AC  25316.83336806 -.01957311  00000+0 -23772-1 0  9999
2 66172  53.1590 247.5615 0001455 113.9490  93.1612 15.63248807  4098
STARLINK-35634          
1 66173U 25240AD  25316.83336806 -.01958744  00000+0 -23793-1 0  9994
2 66173  53.1595 247.5456 0001227 103.0824 111.6956 15.63249926  4095
HTV-X1                  
1 66174U 25241A   25316.22557474  .00019835  00000+0  36009-3 0  9997
2 66174  51.6334 293.5281 0004132  61.4658 298.6746 15.49560899  1456
GAOFEN-14 02            
1 66175U 25242A   25316.17309722  .00013157  00000+0  48805-3 0  9992
2 66175  97.4389  28.3160 0011062 198.3348 161.7494 15.27671515  2603
CZ-3B R/B               
1 66176U 25242B   25309.65934494  .00029904  00000+0  58815-3 0  9997
2 66176  97.4571  21.8726 0103778   5.1082 355.1197 15.41457457  1622
