CCSDS_OMM_VERS = 2.0
CREATION_DATE  = 
ORIGINATOR     = 

OBJECT_NAME    = STARLINK-35575
OBJECT_ID      = 2025-240V
CENTER_NAME    = EARTH
REF_FRAME      = TEME
TIME_SYSTEM    = UTC
MEAN_ELEMENT_THEORY = SGP/SGP4

EPOCH          = 2025-11-12T20:00:03.000384
MEAN_MOTION    = 15.63271909
ECCENTRICITY   = .0001534
INCLINATION    = 53.1593
RA_OF_ASC_NODE = 247.5827
ARG_OF_PERICENTER = 108.6065
MEAN_ANOMALY   = 88.9172

EPHEMERIS_TYPE = 0
CLASSIFICATION_TYPE = U
NORAD_CAT_ID   = 66165
ELEMENT_SET_NO = 999
REV_AT_EPOCH   = 409
BSTAR          = -.24264E-1
MEAN_MOTION_DOT = -.1994584E-1
MEAN_MOTION_DDOT = 0

CCSDS_OMM_VERS = 2.0
CREATION_DATE  = 
ORIGINATOR     = 

OBJECT_NAME    = STARLINK-35624
OBJECT_ID      = 2025-240W
CENTER_NAME    = EARTH
REF_FRAME      = TEME
TIME_SYSTEM    = UTC
MEAN_ELEMENT_THEORY = SGP/SGP4

EPOCH          = 2025-11-12T20:00:03.000384
MEAN_MOTION    = 15.63253397
ECCENTRICITY   = .0001404
INCLINATION    = 53.1593
RA_OF_ASC_NODE = 247.5698
ARG_OF_PERICENTER = 105.7942
MEAN_ANOMALY   = 97.4828

EPHEMERIS_TYPE = 0
CLASSIFICATION_TYPE = U
NORAD_CAT_ID   = 66166
ELEMENT_SET_NO = 999
REV_AT_EPOCH   = 409
BSTAR          = -.23869E-1
MEAN_MOTION_DOT = -.1964599E-1
MEAN_MOTION_DDOT = 0

CCSDS_OMM_VERS = 2.0
CREATION_DATE  = 
ORIGINATOR     = 

OBJECT_NAME    = STARLINK-35641
OBJECT_ID      = 2025-240X
CENTER_NAME    = EARTH
REF_FRAME      = TEME
TIME_SYSTEM    = UTC
MEAN_ELEMENT_THEORY = SGP/SGP4

EPOCH          = 2025-11-12T20:00:03.000384
MEAN_MOTION    = 15.63254226
ECCENTRICITY   = .0001386
INCLINATION    = 53.1595
RA_OF_ASC_NODE = 247.5739
ARG_OF_PERICENTER = 103.4543
MEAN_ANOMALY   = 97.9064

EPHEMERIS_TYPE = 0
CLASSIFICATION_TYPE = U
NORAD_CAT_ID   = 66167
ELEMENT_SET_NO = 999
REV_AT_EPOCH   = 409
BSTAR          = -.23896E-1
MEAN_MOTION_DOT = -.1966638E-1
MEAN_MOTION_DDOT = 0

CCSDS_OMM_VERS = 2.0
CREATION_DATE  = 
ORIGINATOR     = 

OBJECT_NAME    = STARLINK-35578
OBJECT_ID      = 2025-240Y
CENTER_NAME    = EARTH
REF_FRAME      = TEME
TIME_SYSTEM    = UTC
MEAN_ELEMENT_THEORY = SGP/SGP4

EPOCH          = 2025-11-12T20:00:03.000384
MEAN_MOTION    = 15.63259993
ECCENTRICITY   = .0001428
INCLINATION    = 53.1593
RA_OF_ASC_NODE = 247.5578
ARG_OF_PERICENTER = 113.6984
MEAN_ANOMALY   = 95.3252

EPHEMERIS_TYPE = 0
CLASSIFICATION_TYPE = U
NORAD_CAT_ID   = 66168
ELEMENT_SET_NO = 999
REV_AT_EPOCH   = 409
BSTAR          = -.23981E-1
MEAN_MOTION_DOT = -.1973214E-1
MEAN_MOTION_DDOT = 0

CCSDS_OMM_VERS = 2.0
CREATION_DATE  = 
ORIGINATOR     = 

OBJECT_NAME    = STARLINK-35638
OBJECT_ID      = 2025-240Z
CENTER_NAME    = EARTH
REF_FRAME      = TEME
TIME_SYSTEM    = UTC
MEAN_ELEMENT_THEORY = SGP/SGP4

EPOCH          = 2025-11-12T20:00:03.000384
MEAN_MOTION    = 15.63242074
ECCENTRICITY   = .0001462
INCLINATION    = 53.1591
RA_OF_ASC_NODE = 247.5659
ARG_OF_PERICENTER = 112.8283
MEAN_ANOMALY   = 92.3646

EPHEMERIS_TYPE = 0
CLASSIFICATION_TYPE = U
NORAD_CAT_ID   = 66169
ELEMENT_SET_NO = 999
REV_AT_EPOCH   = 409
BSTAR          = -.236E-1
MEAN_MOTION_DOT = -.1944419E-1
MEAN_MOTION_DDOT = 0

CCSDS_OMM_VERS = 2.0
CREATION_DATE  = 
ORIGINATOR     = 

OBJECT_NAME    = STARLINK-35585
OBJECT_ID      = 2025-240AA
CENTER_NAME    = EARTH
REF_FRAME      = TEME
TIME_SYSTEM    = UTC
MEAN_ELEMENT_THEORY = SGP/SGP4

EPOCH          = 2025-11-12T20:00:03.000384
MEAN_MOTION    = 15.63246157
ECCENTRICITY   = .000147
INCLINATION    = 53.1594
RA_OF_ASC_NODE = 247.5550
ARG_OF_PERICENTER = 111.8296
MEAN_ANOMALY   = 99.1143

EPHEMERIS_TYPE = 0
CLASSIFICATION_TYPE = U
NORAD_CAT_ID   = 66170
ELEMENT_SET_NO = 999
REV_AT_EPOCH   = 409
BSTAR          = -.23697E-1
MEAN_MOTION_DOT = -.1951709E-1
MEAN_MOTION_DDOT = 0

CCSDS_OMM_VERS = 2.0
CREATION_DATE  = 
ORIGINATOR     = 

OBJECT_NAME    = STARLINK-35606
OBJECT_ID      = 2025-240AB
CENTER_NAME    = EARTH
REF_FRAME      = TEME
TIME_SYSTEM    = UTC
MEAN_ELEMENT_THEORY = SGP/SGP4

EPOCH          = 2025-11-12T20:00:03.000384
MEAN_MOTION    = 15.63248370
ECCENTRICITY   = .0001286
INCLINATION    = 53.1596
RA_OF_ASC_NODE = 247.5493
ARG_OF_PERICENTER = 100.3737
MEAN_ANOMALY   = 112.4897

EPHEMERIS_TYPE = 0
CLASSIFICATION_TYPE = U
NORAD_CAT_ID   = 66171
ELEMENT_SET_NO = 999
REV_AT_EPOCH   = 409
BSTAR          = -.23784E-1
MEAN_MOTION_DOT = -.1958056E-1
MEAN_MOTION_DDOT = 0

CCSDS_OMM_VERS = 2.0
CREATION_DATE  = 
ORIGINATOR     = 

OBJECT_NAME    = STARLINK-35627
OBJECT_ID      = 2025-240AC
CENTER_NAME    = EARTH
REF_FRAME      = TEME
TIME_SYSTEM    = UTC
MEAN_ELEMENT_THEORY = SGP/SGP4

EPOCH          = 2025-11-12T20:00:03.000384
MEAN_MOTION    = 15.63248807
ECCENTRICITY   = .0001455
INCLINATION    = 53.1590
RA_OF_ASC_NODE = 247.5615
ARG_OF_PERICENTER = 113.9490
MEAN_ANOMALY   = 93.1612

EPHEMERIS_TYPE = 0
CLASSIFICATION_TYPE = U
NORAD_CAT_ID   = 66172
ELEMENT_SET_NO = 999
REV_AT_EPOCH   = 409
BSTAR          = -.23772E-1
MEAN_MOTION_DOT = -.1957311E-1
MEAN_MOTION_DDOT = 0

CCSDS_OMM_VERS = 2.0
CREATION_DATE  = 
ORIGINATOR     = 

OBJECT_NAME    = STARLINK-35634
OBJECT_ID      = 2025-240AD
CENTER_NAME    = EARTH
REF_FRAME      = TEME
TIME_SYSTEM    = UTC
MEAN_ELEMENT_THEORY = SGP/SGP4

EPOCH          = 2025-11-12T20:00:03.000384
MEAN_MOTION    = 15.63249926
ECCENTRICITY   = .0001227
INCLINATION    = 53.1595
RA_OF_ASC_NODE = 247.5456
ARG_OF_PERICENTER = 103.0824
MEAN_ANOMALY   = 111.6956

EPHEMERIS_TYPE = 0
CLASSIFICATION_TYPE = U
NORAD_CAT_ID   = 66173
ELEMENT_SET_NO = 999
REV_AT_EPOCH   = 409
BSTAR          = -.23793E-1
MEAN_MOTION_DOT = -.1958744E-1
MEAN_MOTION_DDOT = 0

CCSDS_OMM_VERS = 2.0
CREATION_DATE  = 
ORIGINATOR     = 

OBJECT_NAME    = HTV-X1
OBJECT_ID      = 2025-241A
CENTER_NAME    = EARTH
REF_FRAME      = TEME
TIME_SYSTEM    = UTC
MEAN_ELEMENT_THEORY = SGP/SGP4

EPOCH          = 2025-11-12T05:24:49.657536
MEAN_MOTION    = 15.49560899
ECCENTRICITY   = .00041322
INCLINATION    = 51.6334
RA_OF_ASC_NODE = 293.5281
ARG_OF_PERICENTER = 61.4658
MEAN_ANOMALY   = 298.6746

EPHEMERIS_TYPE = 0
CLASSIFICATION_TYPE = U
NORAD_CAT_ID   = 66174
ELEMENT_SET_NO = 999
REV_AT_EPOCH   = 145
BSTAR          = .36008987E-3
MEAN_MOTION_DOT = .19835E-3
MEAN_MOTION_DDOT = 0

CCSDS_OMM_VERS = 2.0
CREATION_DATE  = 
ORIGINATOR     = 

OBJECT_NAME    = GAOFEN-14 02
OBJECT_ID      = 2025-242A
CENTER_NAME    = EARTH
REF_FRAME      = TEME
TIME_SYSTEM    = UTC
MEAN_ELEMENT_THEORY = SGP/SGP4

EPOCH          = 2025-11-12T04:09:15.599808
MEAN_MOTION    = 15.27671515
ECCENTRICITY   = .0011062
INCLINATION    = 97.4389
RA_OF_ASC_NODE = 28.3160
ARG_OF_PERICENTER = 198.3348
MEAN_ANOMALY   = 161.7494

EPHEMERIS_TYPE = 0
CLASSIFICATION_TYPE = U
NORAD_CAT_ID   = 66175
ELEMENT_SET_NO = 999
REV_AT_EPOCH   = 260
BSTAR          = .48804676E-3
MEAN_MOTION_DOT = .13157E-3
MEAN_MOTION_DDOT = 0

CCSDS_OMM_VERS = 2.0
CREATION_DATE  = 
ORIGINATOR     = 

OBJECT_NAME    = CZ-3B R/B
OBJECT_ID      = 2025-242B
CENTER_NAME    = EARTH
REF_FRAME      = TEME
TIME_SYSTEM    = UTC
MEAN_ELEMENT_THEORY = SGP/SGP4

EPOCH          = 2025-11-05T15:49:27.402816
MEAN_MOTION    = 15.41457457
ECCENTRICITY   = .01037786
INCLINATION    = 97.4571
RA_OF_ASC_NODE = 21.8726
ARG_OF_PERICENTER = 5.1082
MEAN_ANOMALY   = 355.1197

EPHEMERIS_TYPE = 0
CLASSIFICATION_TYPE = U
NORAD_CAT_ID   = 66176
ELEMENT_SET_NO = 999
REV_AT_EPOCH   = 162
BSTAR          = .58814912E-3
MEAN_MOTION_DOT = .29904E-3
MEAN_MOTION_DDOT = 0

